[{"OBJECT_NAME":"FLOCK 4G-21","OBJECT_ID":"2025-009AU","EPOCH":"2026-03-09T04:40:37.351200","MEAN_MOTION":15.28381075,"ECCENTRICITY":4.655e-5,"INCLINATION":97.4032,"RA_OF_ASC_NODE":151.1274,"ARG_OF_PERICENTER":329.5782,"MEAN_ANOMALY":30.5431,"EPHEMERIS_TYPE":0,"CLASSIFICATION_TYPE":"U","NORAD_CAT_ID":62651,"ELEMENT_SET_NO":999,"REV_AT_EPOCH":6367,"BSTAR":0.00049618643,"MEAN_MOTION_DOT":0.00013648,"MEAN_MOTION_DDOT":0},{"OBJECT_NAME":"STARLINK-36141","OBJECT_ID":"2025-294AD","EPOCH":"2026-03-09T23:11:36.115872","MEAN_MOTION":15.27597691,"ECCENTRICITY":0.00014316,"INCLINATION":43.0074,"RA_OF_ASC_NODE":36.3312,"ARG_OF_PERICENTER":240.6042,"MEAN_ANOMALY":119.4667,"EPHEMERIS_TYPE":0,"CLASSIFICATION_TYPE":"U","NORAD_CAT_ID":67057,"ELEMENT_SET_NO":999,"REV_AT_EPOCH":1484,"BSTAR":0.0010377835,"MEAN_MOTION_DOT":0.00028421,"MEAN_MOTION_DDOT":0}]
